[{"OBJECT_NAME":"PROTOMETHEE","OBJECT_ID":"2023-174BT","EPOCH":"2026-03-09T23:28:08.029344","MEAN_MOTION":15.30202663,"ECCENTRICITY":0.00088339,"INCLINATION":97.3826,"RA_OF_ASC_NODE":147.9552,"ARG_OF_PERICENTER":148.5993,"MEAN_ANOMALY":211.5776,"EPHEMERIS_TYPE":0,"CLASSIFICATION_TYPE":"U","NORAD_CAT_ID":58321,"ELEMENT_SET_NO":999,"REV_AT_EPOCH":12979,"BSTAR":0.00015715731,"MEAN_MOTION_DOT":4.52e-5,"MEAN_MOTION_DDOT":0},{"OBJECT_NAME":"STARLINK-34064","OBJECT_ID":"2025-110U","EPOCH":"2026-03-09T01:12:57.606336","MEAN_MOTION":15.30194312,"ECCENTRICITY":8.547e-5,"INCLINATION":53.1596,"RA_OF_ASC_NODE":29.8024,"ARG_OF_PERICENTER":46.6386,"MEAN_ANOMALY":313.4686,"EPHEMERIS_TYPE":0,"CLASSIFICATION_TYPE":"U","NORAD_CAT_ID":64114,"ELEMENT_SET_NO":999,"REV_AT_EPOCH":4578,"BSTAR":0.00048077778,"MEAN_MOTION_DOT":0.00013904,"MEAN_MOTION_DDOT":0}]
